STARLINK-1752_new
1 16338C 20062Q   21326.13368220 -.00010518  00000-0 -70467-3 0  3261
2 16338  53.0522 218.1311 0001829  66.4568  41.2487 15.06410162    18
STARLINK-1752_old
1 26338C 20062Q   21325.13820873  .00009659  00000-0  64728-3 0  3251
2 26338  53.0536 222.6032 0001900  67.1360  39.0643 15.06379750    17
